OBJECT_NAME,OBJECT_ID,EPOCH,MEAN_MOTION,ECCENTRICITY,INCLINATION,RA_OF_ASC_NODE,ARG_OF_PERICENTER,MEAN_ANOMALY,EPHEMERIS_TYPE,CLASSIFICATION_TYPE,NORAD_CAT_ID,ELEMENT_SET_NO,REV_AT_EPOCH,BSTAR,MEAN_MOTION_DOT,MEAN_MOTION_DDOT
CORVUS BC4,2018-099K,2026-03-01T02:52:12.963072,15.11504619,.00089492,97.4232,106.2527,25.7669,334.4006,0,U,43767,999,39607,.32205871E-3,.5396E-4,0
SPACEBEE-7,2018-099BL,2026-03-01T04:38:42.980064,15.99609981,.0007536,97.4431,146.3515,266.4674,93.5742,0,U,43816,999,39785,.20185E-2,.996098E-2,.48688E-3
M2 PATHFINDER,2020-037E,2026-03-01T11:55:18.069024,15.04111961,.0012332,97.8151,250.5300,151.2959,208.8948,0,U,45727,999,30930,.223E-3,.3031E-4,0
NETSAT-4,2020-068U,2026-03-01T11:16:19.831872,15.39970685,.000586,97.8633,60.3575,9.9504,350.1855,0,U,46504,999,29917,.57173E-3,.2275E-3,0
NETSAT-3,2020-068V,2026-03-01T10:52:13.894176,15.38625104,.0006315,97.8668,58.7118,26.2541,333.9022,0,U,46505,999,29909,.59149E-3,.22526E-3,0
NETSAT-1,2020-068W,2026-03-01T10:54:30.686112,15.31702672,.0006946,97.8733,54.2352,43.0348,317.1434,0,U,46506,999,29879,.59825E-3,.18265E-3,0
NETSAT-2,2020-068X,2026-03-01T08:44:32.431200,15.41075966,.0005777,97.8646,59.8318,44.2596,315.9110,0,U,46507,999,29910,.65884E-3,.2722E-3,0
WILDTRACKCUBE-SIMBA,2021-022K,2026-03-01T11:23:29.062752,16.10138252,.0007481,97.3841,342.0122,114.6332,245.5731,0,U,47941,999,27452,.1394E-2,.128643E-1,.10859E-2
GREENCUBE (IO-117),2022-080E,2026-03-01T04:08:34.175328,6.42583117,.0009069,70.1622,335.8145,313.5735,46.4172,0,U,53109,999,8512,0,-.3E-7,0
SITRO-AIS 5 (KATYS),2023-091L,2026-03-01T11:43:23.432160,15.26794988,.0013419,97.5205,123.5025,121.1327,239.1230,0,U,57176,999,14789,.59951E-3,.15772E-3,0
SITRO-AIS 6 (CHIRKIN),2023-091AC,2026-03-01T12:12:03.263904,15.24253976,.0014104,97.5208,123.1500,120.8066,239.4561,0,U,57192,999,14787,.36626E-3,.8893E-4,0
SITRO-AIS 8 (ANOKHIN),2023-091AD,2026-03-01T13:09:16.968384,15.29034453,.0012594,97.5197,124.7516,118.4284,241.8226,0,U,57193,999,14798,.55848E-3,.1572E-3,0
SITRO-AIS 7 (FARTUSHNIY),2023-091AE,2026-03-01T11:47:53.869344,15.24018368,.0013907,97.5208,123.0076,121.8445,238.4148,0,U,57194,999,14786,.31006E-3,.7462E-4,0
SITRO-AIS 10 (BURDAEV),2023-091AK,2026-03-01T11:18:33.285312,15.34325343,.0008521,97.5210,128.7216,100.3197,259.9006,0,U,57199,999,14822,.72639E-3,.24135E-3,0
SITRO-AIS 9 (SHCHUKIN),2023-091AM,2026-03-01T11:13:09.111648,15.33962422,.0008701,97.5210,128.5222,100.2843,259.9381,0,U,57201,999,14821,.73873E-3,.24267E-3,0
SITRO-AIS 12 (SMIRENNIY),2023-091AQ,2026-03-01T13:00:55.526976,15.34213884,.0008403,97.5220,129.0026,95.2145,265.0056,0,U,57204,999,14824,.73E-3,.24169E-3,0
SITRO-AIS 11 (SHEFFER),2023-091AU,2026-03-01T12:24:53.241696,15.34542747,.0008312,97.5218,129.1631,95.2268,264.9923,0,U,57208,999,14825,.71492E-3,.23915E-3,0
SITRO-AIS 25,2024-039R,2026-03-01T12:59:08.596608,14.92546927,.0146394,95.3943,161.1543,344.9911,14.6990,0,U,59066,999,10866,.38097E-3,.479E-4,0
SITRO-AIS 26,2024-039S,2026-03-01T12:40:57.942624,14.92360630,.0146732,95.3944,161.0641,345.4939,14.2094,0,U,59067,999,10865,.35692E-3,.4466E-4,0
SITRO-AIS 27,2024-039T,2026-03-01T12:40:14.958624,14.92755302,.0145826,95.3945,161.2876,344.3344,15.3392,0,U,59068,999,10867,.3835E-3,.4841E-4,0
SITRO-AIS 28,2024-039U,2026-03-01T12:11:20.609088,14.92790424,.0145653,95.3949,161.3154,344.3169,15.3566,0,U,59071,999,10867,.34083E-3,.43E-4,0
GRBBETA,2024-128C,2026-03-01T11:20:27.480192,15.05665714,.0052222,61.9883,233.9279,112.6296,248.0331,0,U,60237,999,9004,.47632E-3,.6916E-4,0
OOV-CUBE (TUBSAT-30),2024-128F,2026-03-01T12:12:36.444096,15.02173136,.0055212,61.9932,240.8886,110.7559,249.9460,0,U,60240,999,8993,.31364E-3,.4072E-4,0
ROBUSTA-3A (MEDITERRANEE),2024-128J,2026-03-01T01:20:09.140640,15.09847478,.00526835,61.9848,230.1377,106.7522,253.9363,0,U,60243,999,9008,.5832263E-3,.9586E-4,0
LASARSAT,2024-247Q,2026-03-01T06:02:43.619136,15.39530419,.0003131,44.9757,145.7020,334.9913,25.0822,0,U,62391,999,6664,.84445E-3,.33701E-3,0
CROCUBE,2024-247T,2026-03-01T06:54:23.010048,15.40617779,.0003328,44.9737,144.2026,318.6447,41.4188,0,U,62394,999,6666,.90027E-3,.37294E-3,0