CORVUS BC4              
1 43767U 18099K   26060.11959448  .00005396  00000+0  32206-3 0  9997
2 43767  97.4232 106.2527 0008949  25.7669 334.4006 15.11504619396072
SPACEBEE-7              
1 43816U 18099BL  26060.19355301  .00996098  48688-3  20185-2 0  9996
2 43816  97.4431 146.3515 0007536 266.4674  93.5742 15.99609981397852
M2 PATHFINDER           
1 45727U 20037E   26060.49673691  .00003031  00000+0  22300-3 0  9992
2 45727  97.8151 250.5300 0012332 151.2959 208.8948 15.04111961309309
NETSAT-4                
1 46504U 20068U   26060.46967398  .00022750  00000+0  57173-3 0  9992
2 46504  97.8633  60.3575 0005860   9.9504 350.1855 15.39970685299177
NETSAT-3                
1 46505U 20068V   26060.45293859  .00022526  00000+0  59149-3 0  9992
2 46505  97.8668  58.7118 0006315  26.2541 333.9022 15.38625104299097
NETSAT-1                
1 46506U 20068W   26060.45452183  .00018265  00000+0  59825-3 0  9996
2 46506  97.8733  54.2352 0006946  43.0348 317.1434 15.31702672298790
NETSAT-2                
1 46507U 20068X   26060.36426425  .00027220  00000+0  65884-3 0  9990
2 46507  97.8646  59.8318 0005777  44.2596 315.9110 15.41075966299109
WILDTRACKCUBE-SIMBA     
1 47941U 21022K   26060.47464193  .01286430  10859-2  13940-2 0  9992
2 47941  97.3841 342.0122 0007481 114.6332 245.5731 16.10138252274529
GREENCUBE (IO-117)      
1 53109U 22080E   26060.17261777 -.00000003  00000+0  00000+0 0  9994
2 53109  70.1622 335.8145 0009069 313.5735  46.4172  6.42583117 85125
SITRO-AIS 5 (KATYS)     
1 57176U 23091L   26060.48846565  .00015772  00000+0  59951-3 0  9994
2 57176  97.5205 123.5025 0013419 121.1327 239.1230 15.26794988147897
SITRO-AIS 6 (CHIRKIN)   
1 57192U 23091AC  26060.50837111  .00008893  00000+0  36626-3 0  9992
2 57192  97.5208 123.1500 0014104 120.8066 239.4561 15.24253976147873
SITRO-AIS 8 (ANOKHIN)   
1 57193U 23091AD  26060.54811306  .00015720  00000+0  55848-3 0  9999
2 57193  97.5197 124.7516 0012594 118.4284 241.8226 15.29034453147980
SITRO-AIS 7 (FARTUSHNIY)
1 57194U 23091AE  26060.49159571  .00007462  00000+0  31006-3 0  9997
2 57194  97.5208 123.0076 0013907 121.8445 238.4148 15.24018368147867
SITRO-AIS 10 (BURDAEV)  
1 57199U 23091AK  26060.47121858  .00024135  00000+0  72639-3 0  9990
2 57199  97.5210 128.7216 0008521 100.3197 259.9006 15.34325343148222
SITRO-AIS 9 (SHCHUKIN)  
1 57201U 23091AM  26060.46746657  .00024267  00000+0  73873-3 0  9990
2 57201  97.5210 128.5222 0008701 100.2843 259.9381 15.33962422148217
SITRO-AIS 12 (SMIRENNIY)
1 57204U 23091AQ  26060.54230934  .00024169  00000+0  73000-3 0  9991
2 57204  97.5220 129.0026 0008403  95.2145 265.0056 15.34213884148248
SITRO-AIS 11 (SHEFFER)  
1 57208U 23091AU  26060.51728289  .00023915  00000+0  71492-3 0  9998
2 57208  97.5218 129.1631 0008312  95.2268 264.9923 15.34542747148252
SITRO-AIS 25            
1 59066U 24039R   26060.54107172  .00004790  00000+0  38097-3 0  9994
2 59066  95.3943 161.1543 0146394 344.9911  14.6990 14.92546927108669
SITRO-AIS 26            
1 59067U 24039S   26060.52844841  .00004466  00000+0  35692-3 0  9992
2 59067  95.3944 161.0641 0146732 345.4939  14.2094 14.92360630108656
SITRO-AIS 27            
1 59068U 24039T   26060.52795091  .00004841  00000+0  38350-3 0  9996
2 59068  95.3945 161.2876 0145826 344.3344  15.3392 14.92755302108670
SITRO-AIS 28            
1 59071U 24039U   26060.50787742  .00004300  00000+0  34083-3 0  9991
2 59071  95.3949 161.3154 0145653 344.3169  15.3566 14.92790424108678
GRBBETA                 
1 60237U 24128C   26060.47254028  .00006916  00000+0  47632-3 0  9997
2 60237  61.9883 233.9279 0052222 112.6296 248.0331 15.05665714 90044
OOV-CUBE (TUBSAT-30)    
1 60240U 24128F   26060.50875514  .00004072  00000+0  31364-3 0  9990
2 60240  61.9932 240.8886 0055212 110.7559 249.9460 15.02173136 89935
ROBUSTA-3A (MEDITERRAN*)
1 60243U 24128J   26060.05566135  .00009586  00000+0  58323-3 0  9998
2 60243  61.9848 230.1377 0052683 106.7522 253.9363 15.09847478 90084
LASARSAT                
1 62391U 24247Q   26060.25189374  .00033701  00000+0  84445-3 0  9994
2 62391  44.9757 145.7020 0003131 334.9913  25.0822 15.39530419 66649
CROCUBE                 
1 62394U 24247T   26060.28776632  .00037294  00000+0  90027-3 0  9993
2 62394  44.9737 144.2026 0003328 318.6447  41.4188 15.40617779 66665
